0 FENGYUN 1C DEB
1 31501U 99025BWQ 13281.78731352  .00001344  00000-0  78289-3 0  2583
2 31501 099.0401 277.6396 0048400 028.6995 331.6760 14.09743652331295
0 FENGYUN 1C DEB
1 31501U 99025BWQ 13283.20678838  .00001293  00000-0  75382-3 0  2596
2 31501 099.0411 279.0674 0048154 025.5355 334.8084 14.09746635331493
0 FENGYUN 1C DEB
1 31501U 99025BWQ 13287.18129219  .00001394  00000-0  81064-3 0  2610
2 31501 099.0401 283.0530 0048213 014.4619 345.7998 14.09759314332050
0 FENGYUN 1C DEB
1 31501U 99025BWQ 13289.23950161  .00001564  00000-0  90649-3 0  2625
2 31501 099.0402 285.1222 0047597 009.3328 350.9102 14.09768021332348
0 FENGYUN 1C DEB
1 31501U 99025BWQ 13290.80088629  .00001676  00000-0  97014-3 0  2639
2 31501 099.0404 286.6887 0046794 005.0153 355.1724 14.09774617332569
0 FENGYUN 1C DEB
1 31501U 99025BWQ 13292.22032269  .00001760  00000-0  10172-2 0  2640
2 31501 099.0421 288.1161 0046568 000.8243 359.3122 14.09780492332760
0 FENGYUN 1C DEB
1 31501U 99025BWQ 13293.78169842  .00001774  00000-0  10247-2 0  2659
2 31501 099.0415 289.6821 0046781 356.2329 003.8506 14.09786393332989
0 FENGYUN 1C DEB
1 31501U 99025BWQ 13295.20112735  .00001774  00000-0  10246-2 0  2667
2 31501 099.0420 291.1077 0046898 352.1928 007.8518 14.09791556333182
